ONEWEB-0387             
1 49313U 21090AL  25230.56676098 -.00000022  00000+0 -86109-4 0  9994
2 49313  87.9289 334.7831 0002056 108.4246 251.7111 13.20772797189878
ONEWEB-0388             
1 49314U 21090AM  25230.44393929 -.00000032  00000+0 -11310-3 0  9993
2 49314  87.9257   5.1667 0001975  97.7531 262.3826 13.19724521186481
ONEWEB-0389             
1 50469U 21132A   25230.59308836  .00000084  00000+0  18375-3 0  9995
2 50469  87.9029  66.0819 0001993  98.2762 261.8596 13.17648526178238
ONEWEB-0390             
1 50470U 21132B   25230.82256508  .00000036  00000+0  58337-4 0  9991
2 50470  87.9030  66.0423 0001497  91.2032 268.9271 13.17648750179558
ONEWEB-0391             
1 50471U 21132C   25230.82426719  .00000051  00000+0  98135-4 0  9992
2 50471  87.9023  66.0563 0002009 114.0979 246.0363 13.17648940179550
ONEWEB-0392             
1 50472U 21132D   25230.55089599  .00000086  00000+0  18795-3 0  9995
2 50472  87.9029  66.0545 0001902 100.0961 260.0385 13.17648809178265
ONEWEB-0393             
1 50473U 21132E   25230.82774814  .00000021  00000+0  19724-4 0  9990
2 50473  87.9031  66.0190 0001817  93.8735 266.2604 13.17650993179583
ONEWEB-0394             
1 50474U 21132F   25230.50234896  .00000118  00000+0  26752-3 0  9992
2 50474  87.9143  35.5518 0001954  95.9692 264.1663 13.18685809181704
